ORBCOMM-X               
1 21576U 91050C   25002.25552186  .00001645  00000+0  50386-3 0  9999
2 21576  98.3669  72.0863 0003157 345.9803  14.1299 14.43014668758180
ORBCOMM FM01            
1 23545U 95017A   25002.41887706  .00025943  00000+0  29267-2 0  9991
2 23545  69.9660 126.4790 0006030 248.5256 111.5254 14.86478920587847
ORBCOMM FM02            
1 23546U 95017B   25002.48695962  .00030365  00000+0  34119-2 0  9996
2 23546  69.9670 146.0072 0007447 237.7819 122.2612 14.86589577587497
ORBCOMM FM08            
1 25112U 97084A   25002.91622633  .00005817  00000+0  16996-2 0  9993
2 25112  45.0139  80.6616 0005586 155.2207 204.8913 14.44745123417462
ORBCOMM FM10            
1 25113U 97084B   25002.45925360  .00008313  00000+0  24194-2 0  9999
2 25113  45.0151  84.9560 0002627 120.0040 240.1072 14.44563670592547
ORBCOMM FM11            
1 25114U 97084C   25002.92043079  .00005505  00000+0  16240-2 0  9993
2 25114  45.0136  83.0929 0003497 119.2645 240.8556 14.44350459417579
ORBCOMM FM12            
1 25115U 97084D   25002.46966681  .00008034  00000+0  23501-2 0  9994
2 25115  45.0144  85.0116 0002485 122.0264 238.0829 14.44348366417301
ORBCOMM FM09            
1 25116U 97084E   25002.90434486  .00005208  00000+0  15415-2 0  9992
2 25116  45.0147  83.7160 0003376  93.7908 266.3329 14.44261386417572
